ONEWEB-0235             
1 48771U 21045E   24348.01690360 -.00000086  00000+0 -26333-3 0  9990
2 48771  87.9068   8.9241 0001347  73.7848 286.3430 13.15549706171919
ONEWEB-0242             
1 48772U 21045F   24349.98806316  .00000146  00000+0  35330-3 0  9990
2 48772  87.9066   8.5194 0001655  84.8316 275.3003 13.15549803173347
ONEWEB-0241             
1 48773U 21045G   24349.82326354  .00000113  00000+0  26590-3 0  9995
2 48773  87.9073   8.6161 0001401  98.2592 261.8697 13.15546835173234
ONEWEB-0243             
1 48774U 21045H   24348.48591340 -.00000029  00000+0 -11219-3 0  9996
2 48774  87.9074   8.8423 0001521  77.7633 282.3667 13.15546481171959
ONEWEB-0222             
1 48775U 21045J   24349.99043482  .00000121  00000+0  28821-3 0  9991
2 48775  87.9065   8.5275 0001526  91.9444 268.1861 13.15549058173318
ONEWEB-0244             
1 48776U 21045K   24350.01657685 -.00000008  00000+0 -55282-4 0  9991
2 48776  87.9061   8.5019 0001749  86.0252 274.1078 13.15550052173885
ONEWEB-0247             
1 48777U 21045L   24350.31764100 -.00000072  00000+0 -22402-3 0  9994
2 48777  87.9070   8.4971 0001265  58.8431 301.2823 13.15548713173376
ONEWEB-0245             
1 48778U 21045M   24350.31288236 -.00000006  00000+0 -49402-4 0  9993
2 48778  87.9061   8.4760 0001553  97.5803 262.5504 13.15549225173347
